{
    "links": {
        "self": "http://www.neowsapp.com/rest/v1/neo/3893635?api_key=iIulBulltgU6a56xZRHN4H3l9WmuAYTsLGpBGhQ2"
    },
    "id": "3893635",
    "neo_reference_id": "3893635",
    "name": "(2019 WY3)",
    "designation": "2019 WY3",
    "nasa_jpl_url": "http://ssd.jpl.nasa.gov/sbdb.cgi?sstr=3893635",
    "absolute_magnitude_h": 25.1,
    "estimated_diameter": {
        "kilometers": {
            "estimated_diameter_min": 0.0253837029,
            "estimated_diameter_max": 0.0567596853
        },
        "meters": {
            "estimated_diameter_min": 25.3837029364,
            "estimated_diameter_max": 56.7596852866
        },
        "miles": {
            "estimated_diameter_min": 0.0157726969,
            "estimated_diameter_max": 0.0352688224
        },
        "feet": {
            "estimated_diameter_min": 83.279867942,
            "estimated_diameter_max": 186.2194458756
        }
    },
    "is_potentially_hazardous_asteroid": false,
    "close_approach_data": [
        {
            "close_approach_date": "2018-01-31",
            "close_approach_date_full": "2018-Jan-31 08:57",
            "epoch_date_close_approach": 1517389020000,
            "relative_velocity": {
                "kilometers_per_second": "2.9232840242",
                "kilometers_per_hour": "10523.8224869758",
                "miles_per_hour": "6539.0940336434"
            },
            "miss_distance": {
                "astronomical": "1.7487330936",
                "lunar": "680.2571734104",
                "kilometers": "261606746.001070632",
                "miles": "162554894.1944614416"
            },
            "orbiting_body": "Juptr"
        },
        {
            "close_approach_date": "2019-11-27",
            "close_approach_date_full": "2019-Nov-27 10:38",
            "epoch_date_close_approach": 1574851080000,
            "relative_velocity": {
                "kilometers_per_second": "10.3641520375",
                "kilometers_per_hour": "37310.9473349377",
                "miles_per_hour": "23183.5716926451"
            },
            "miss_distance": {
                "astronomical": "0.0530384358",
                "lunar": "20.6319515262",
                "kilometers": "7934437.023811746",
                "miles": "4930230.5487682548"
            },
            "orbiting_body": "Earth"
        }
    ],
    "orbital_data": {
        "orbit_id": "4",
        "orbit_determination_date": "2019-12-06 05:26:19",
        "first_observation_date": "2019-11-28",
        "last_observation_date": "2019-12-06",
        "data_arc_in_days": 8,
        "observations_used": 33,
        "orbit_uncertainty": "7",
        "minimum_orbit_intersection": ".0359413",
        "jupiter_tisserand_invariant": "3.297",
        "epoch_osculation": "2459000.5",
        "eccentricity": ".5738976430717709",
        "semi_major_axis": "2.353107957456798",
        "inclination": "9.551667047764623",
        "ascending_node_longitude": "65.29192496847207",
        "orbital_period": "1318.442535015965",
        "perihelion_distance": "1.002664846778913",
        "perihelion_argument": "336.9124936829752",
        "aphelion_distance": "3.703551068134684",
        "perihelion_time": "2458798.130215774252",
        "mean_anomaly": "55.25695689147895",
        "mean_motion": ".2730494431413659",
        "equinox": "J2000",
        "orbit_class": {
            "orbit_class_type": "APO",
            "orbit_class_description": "Near-Earth asteroid orbits which cross the Earth’s orbit similar to that of 1862 Apollo",
            "orbit_class_range": "a (semi-major axis) > 1.0 AU; q (perihelion) < 1.017 AU"
        }
    },
    "is_sentry_object": false
}